[{"OBJECT_NAME":"STARLINK-30822","OBJECT_ID":"2023-167U","EPOCH":"2026-03-09T13:30:21.009024","MEAN_MOTION":15.26729916,"ECCENTRICITY":4.95e-5,"INCLINATION":43.0017,"RA_OF_ASC_NODE":144.2908,"ARG_OF_PERICENTER":333.5405,"MEAN_ANOMALY":26.5421,"EPHEMERIS_TYPE":0,"CLASSIFICATION_TYPE":"U","NORAD_CAT_ID":58193,"ELEMENT_SET_NO":999,"REV_AT_EPOCH":13096,"BSTAR":4.971e-5,"MEAN_MOTION_DOT":1.074e-5,"MEAN_MOTION_DDOT":0},{"OBJECT_NAME":"OPTUS A1 R\/B [PAM-D]","OBJECT_ID":"1985-076E","EPOCH":"2026-03-09T08:56:10.377312","MEAN_MOTION":2.38963259,"ECCENTRICITY":0.71529695,"INCLINATION":25.7384,"RA_OF_ASC_NODE":230.158,"ARG_OF_PERICENTER":261.0489,"MEAN_ANOMALY":19.1324,"EPHEMERIS_TYPE":0,"CLASSIFICATION_TYPE":"U","NORAD_CAT_ID":15996,"ELEMENT_SET_NO":999,"REV_AT_EPOCH":29255,"BSTAR":0.0012025532,"MEAN_MOTION_DOT":8.77e-6,"MEAN_MOTION_DDOT":0}]
